YAOGAN-50 01            
1 67433U 26006A   26016.17880840  .00000537  00000+0  12658-3 0  9997
2 67433 141.9984 200.7842 0164962 123.7171 237.9391 14.21837795   375
CZ-6A R/B               
1 67434U 26006B   26013.71733058  .00000541  00000+0  30805-4 0  9993
2 67434 142.0438 188.1412 0201725  82.0696 280.2897 14.62247694    24
HULIANWANG DIGUI 18A    
1 67435U 26007A   26019.93315358  .00000086  00000+0  18077-3 0  9994
2 67435  50.0082 269.3558 0008367 291.1711  68.8294 13.92121821   889
HULIANWANG DIGUI 18B    
1 67436U 26007B   26019.93364727  .00000080  00000+0  17625-3 0  9991
2 67436  50.0063 269.3555 0007483 279.1231  80.8822 13.92014599   881
HULIANWANG DIGUI 18C    
1 67437U 26007C   26019.93345185  .00000143  00000+0  22560-3 0  9993
2 67437  50.0031 269.3509 0008139 286.3751  73.6253 13.92055013   886
HULIANWANG DIGUI 18D    
1 67438U 26007D   26019.93415278  .00000118  00000+0  20645-3 0  9999
2 67438  50.0057 269.3577 0008947 285.1040  74.8869 13.91902380   888
HULIANWANG DIGUI 18E    
1 67439U 26007E   26019.93293595  .00000092  00000+0  18570-3 0  9991
2 67439  50.0049 269.3502 0006739 283.9886  76.0263 13.92170860   882
HULIANWANG DIGUI 18F    
1 67440U 26007F   26019.93235372 -.00000103  00000+0  34162-4 0  9992
2 67440  50.0127 269.3580 0007589 292.9425  67.0673 13.92299526   886
HULIANWANG DIGUI 18G    
1 67441U 26007G   26019.93222389  .00000096  00000+0  18778-3 0  9991
2 67441  50.0105 269.3542 0006314 289.4378  70.5839 13.92329183   880
HULIANWANG DIGUI 18H    
1 67442U 26007H   26019.93196162  .00000066  00000+0  16450-3 0  9993
2 67442  50.0093 269.3519 0007471 299.8283  60.1874 13.92385803   881
HULIANWANG DIGUI 18J    
1 67443U 26007J   26019.93123709  .00000116  00000+0  20329-3 0  9997
2 67443  50.0097 269.3481 0006054 298.2199  61.8089 13.92554274   885
CZ-8A R/B               
1 67444U 26007K   26019.90958265 -.00000171  00000+0 -72672-5 0  9991
2 67444  50.0096 268.5646 0092159 104.5838 256.5312 14.13544711   880
