CCSDS_OMM_VERS = 2.0
CREATION_DATE  = 
ORIGINATOR     = 

OBJECT_NAME    = YAOGAN-50 01
OBJECT_ID      = 2026-006A
CENTER_NAME    = EARTH
REF_FRAME      = TEME
TIME_SYSTEM    = UTC
MEAN_ELEMENT_THEORY = SGP/SGP4

EPOCH          = 2026-01-16T04:17:29.045760
MEAN_MOTION    = 14.21837795
ECCENTRICITY   = .01649624
INCLINATION    = 141.9984
RA_OF_ASC_NODE = 200.7842
ARG_OF_PERICENTER = 123.7171
MEAN_ANOMALY   = 237.9391

EPHEMERIS_TYPE = 0
CLASSIFICATION_TYPE = U
NORAD_CAT_ID   = 67433
ELEMENT_SET_NO = 999
REV_AT_EPOCH   = 37
BSTAR          = .12657815E-3
MEAN_MOTION_DOT = .537E-5
MEAN_MOTION_DDOT = 0

CCSDS_OMM_VERS = 2.0
CREATION_DATE  = 
ORIGINATOR     = 

OBJECT_NAME    = CZ-6A R/B
OBJECT_ID      = 2026-006B
CENTER_NAME    = EARTH
REF_FRAME      = TEME
TIME_SYSTEM    = UTC
MEAN_ELEMENT_THEORY = SGP/SGP4

EPOCH          = 2026-01-13T17:12:57.362112
MEAN_MOTION    = 14.62247694
ECCENTRICITY   = .02017257
INCLINATION    = 142.0438
RA_OF_ASC_NODE = 188.1412
ARG_OF_PERICENTER = 82.0696
MEAN_ANOMALY   = 280.2897

EPHEMERIS_TYPE = 0
CLASSIFICATION_TYPE = U
NORAD_CAT_ID   = 67434
ELEMENT_SET_NO = 999
REV_AT_EPOCH   = 2
BSTAR          = .30805067E-4
MEAN_MOTION_DOT = .541E-5
MEAN_MOTION_DDOT = 0

CCSDS_OMM_VERS = 2.0
CREATION_DATE  = 
ORIGINATOR     = 

OBJECT_NAME    = HULIANWANG DIGUI 18A
OBJECT_ID      = 2026-007A
CENTER_NAME    = EARTH
REF_FRAME      = TEME
TIME_SYSTEM    = UTC
MEAN_ELEMENT_THEORY = SGP/SGP4

EPOCH          = 2026-01-19T22:23:44.469312
MEAN_MOTION    = 13.92121821
ECCENTRICITY   = .00083673
INCLINATION    = 50.0082
RA_OF_ASC_NODE = 269.3558
ARG_OF_PERICENTER = 291.1711
MEAN_ANOMALY   = 68.8294

EPHEMERIS_TYPE = 0
CLASSIFICATION_TYPE = U
NORAD_CAT_ID   = 67435
ELEMENT_SET_NO = 999
REV_AT_EPOCH   = 88
BSTAR          = .18076522E-3
MEAN_MOTION_DOT = .86E-6
MEAN_MOTION_DDOT = 0

CCSDS_OMM_VERS = 2.0
CREATION_DATE  = 
ORIGINATOR     = 

OBJECT_NAME    = HULIANWANG DIGUI 18B
OBJECT_ID      = 2026-007B
CENTER_NAME    = EARTH
REF_FRAME      = TEME
TIME_SYSTEM    = UTC
MEAN_ELEMENT_THEORY = SGP/SGP4

EPOCH          = 2026-01-19T22:24:27.124128
MEAN_MOTION    = 13.92014599
ECCENTRICITY   = .00074833
INCLINATION    = 50.0063
RA_OF_ASC_NODE = 269.3555
ARG_OF_PERICENTER = 279.1231
MEAN_ANOMALY   = 80.8822

EPHEMERIS_TYPE = 0
CLASSIFICATION_TYPE = U
NORAD_CAT_ID   = 67436
ELEMENT_SET_NO = 999
REV_AT_EPOCH   = 88
BSTAR          = .17624885E-3
MEAN_MOTION_DOT = .8E-6
MEAN_MOTION_DDOT = 0

CCSDS_OMM_VERS = 2.0
CREATION_DATE  = 
ORIGINATOR     = 

OBJECT_NAME    = HULIANWANG DIGUI 18C
OBJECT_ID      = 2026-007C
CENTER_NAME    = EARTH
REF_FRAME      = TEME
TIME_SYSTEM    = UTC
MEAN_ELEMENT_THEORY = SGP/SGP4

EPOCH          = 2026-01-19T22:24:10.239840
MEAN_MOTION    = 13.92055013
ECCENTRICITY   = .00081396
INCLINATION    = 50.0031
RA_OF_ASC_NODE = 269.3509
ARG_OF_PERICENTER = 286.3751
MEAN_ANOMALY   = 73.6253

EPHEMERIS_TYPE = 0
CLASSIFICATION_TYPE = U
NORAD_CAT_ID   = 67437
ELEMENT_SET_NO = 999
REV_AT_EPOCH   = 88
BSTAR          = .22560307E-3
MEAN_MOTION_DOT = .143E-5
MEAN_MOTION_DDOT = 0

CCSDS_OMM_VERS = 2.0
CREATION_DATE  = 
ORIGINATOR     = 

OBJECT_NAME    = HULIANWANG DIGUI 18D
OBJECT_ID      = 2026-007D
CENTER_NAME    = EARTH
REF_FRAME      = TEME
TIME_SYSTEM    = UTC
MEAN_ELEMENT_THEORY = SGP/SGP4

EPOCH          = 2026-01-19T22:25:10.800192
MEAN_MOTION    = 13.91902380
ECCENTRICITY   = .00089477
INCLINATION    = 50.0057
RA_OF_ASC_NODE = 269.3577
ARG_OF_PERICENTER = 285.1040
MEAN_ANOMALY   = 74.8869

EPHEMERIS_TYPE = 0
CLASSIFICATION_TYPE = U
NORAD_CAT_ID   = 67438
ELEMENT_SET_NO = 999
REV_AT_EPOCH   = 88
BSTAR          = .20645071E-3
MEAN_MOTION_DOT = .118E-5
MEAN_MOTION_DDOT = 0

CCSDS_OMM_VERS = 2.0
CREATION_DATE  = 
ORIGINATOR     = 

OBJECT_NAME    = HULIANWANG DIGUI 18E
OBJECT_ID      = 2026-007E
CENTER_NAME    = EARTH
REF_FRAME      = TEME
TIME_SYSTEM    = UTC
MEAN_ELEMENT_THEORY = SGP/SGP4

EPOCH          = 2026-01-19T22:23:25.666080
MEAN_MOTION    = 13.92170860
ECCENTRICITY   = .00067392
INCLINATION    = 50.0049
RA_OF_ASC_NODE = 269.3502
ARG_OF_PERICENTER = 283.9886
MEAN_ANOMALY   = 76.0263

EPHEMERIS_TYPE = 0
CLASSIFICATION_TYPE = U
NORAD_CAT_ID   = 67439
ELEMENT_SET_NO = 999
REV_AT_EPOCH   = 88
BSTAR          = .18569827E-3
MEAN_MOTION_DOT = .92E-6
MEAN_MOTION_DDOT = 0

CCSDS_OMM_VERS = 2.0
CREATION_DATE  = 
ORIGINATOR     = 

OBJECT_NAME    = HULIANWANG DIGUI 18F
OBJECT_ID      = 2026-007F
CENTER_NAME    = EARTH
REF_FRAME      = TEME
TIME_SYSTEM    = UTC
MEAN_ELEMENT_THEORY = SGP/SGP4

EPOCH          = 2026-01-19T22:22:35.361408
MEAN_MOTION    = 13.92299526
ECCENTRICITY   = .00075893
INCLINATION    = 50.0127
RA_OF_ASC_NODE = 269.3580
ARG_OF_PERICENTER = 292.9425
MEAN_ANOMALY   = 67.0673

EPHEMERIS_TYPE = 0
CLASSIFICATION_TYPE = U
NORAD_CAT_ID   = 67440
ELEMENT_SET_NO = 999
REV_AT_EPOCH   = 88
BSTAR          = .341619E-4
MEAN_MOTION_DOT = -.103E-5
MEAN_MOTION_DDOT = 0

CCSDS_OMM_VERS = 2.0
CREATION_DATE  = 
ORIGINATOR     = 

OBJECT_NAME    = HULIANWANG DIGUI 18G
OBJECT_ID      = 2026-007G
CENTER_NAME    = EARTH
REF_FRAME      = TEME
TIME_SYSTEM    = UTC
MEAN_ELEMENT_THEORY = SGP/SGP4

EPOCH          = 2026-01-19T22:22:24.144096
MEAN_MOTION    = 13.92329183
ECCENTRICITY   = .00063145
INCLINATION    = 50.0105
RA_OF_ASC_NODE = 269.3542
ARG_OF_PERICENTER = 289.4378
MEAN_ANOMALY   = 70.5839

EPHEMERIS_TYPE = 0
CLASSIFICATION_TYPE = U
NORAD_CAT_ID   = 67441
ELEMENT_SET_NO = 999
REV_AT_EPOCH   = 88
BSTAR          = .18778342E-3
MEAN_MOTION_DOT = .96E-6
MEAN_MOTION_DDOT = 0

CCSDS_OMM_VERS = 2.0
CREATION_DATE  = 
ORIGINATOR     = 

OBJECT_NAME    = HULIANWANG DIGUI 18H
OBJECT_ID      = 2026-007H
CENTER_NAME    = EARTH
REF_FRAME      = TEME
TIME_SYSTEM    = UTC
MEAN_ELEMENT_THEORY = SGP/SGP4

EPOCH          = 2026-01-19T22:22:01.483968
MEAN_MOTION    = 13.92385803
ECCENTRICITY   = .00074712
INCLINATION    = 50.0093
RA_OF_ASC_NODE = 269.3519
ARG_OF_PERICENTER = 299.8283
MEAN_ANOMALY   = 60.1874

EPHEMERIS_TYPE = 0
CLASSIFICATION_TYPE = U
NORAD_CAT_ID   = 67442
ELEMENT_SET_NO = 999
REV_AT_EPOCH   = 88
BSTAR          = .16449653E-3
MEAN_MOTION_DOT = .66E-6
MEAN_MOTION_DDOT = 0

CCSDS_OMM_VERS = 2.0
CREATION_DATE  = 
ORIGINATOR     = 

OBJECT_NAME    = HULIANWANG DIGUI 18J
OBJECT_ID      = 2026-007J
CENTER_NAME    = EARTH
REF_FRAME      = TEME
TIME_SYSTEM    = UTC
MEAN_ELEMENT_THEORY = SGP/SGP4

EPOCH          = 2026-01-19T22:20:58.884576
MEAN_MOTION    = 13.92554274
ECCENTRICITY   = .00060549
INCLINATION    = 50.0097
RA_OF_ASC_NODE = 269.3481
ARG_OF_PERICENTER = 298.2199
MEAN_ANOMALY   = 61.8089

EPHEMERIS_TYPE = 0
CLASSIFICATION_TYPE = U
NORAD_CAT_ID   = 67443
ELEMENT_SET_NO = 999
REV_AT_EPOCH   = 88
BSTAR          = .20328981E-3
MEAN_MOTION_DOT = .116E-5
MEAN_MOTION_DDOT = 0

CCSDS_OMM_VERS = 2.0
CREATION_DATE  = 
ORIGINATOR     = 

OBJECT_NAME    = CZ-8A R/B
OBJECT_ID      = 2026-007K
CENTER_NAME    = EARTH
REF_FRAME      = TEME
TIME_SYSTEM    = UTC
MEAN_ELEMENT_THEORY = SGP/SGP4

EPOCH          = 2026-01-19T21:49:47.940960
MEAN_MOTION    = 14.13544711
ECCENTRICITY   = .00921591
INCLINATION    = 50.0096
RA_OF_ASC_NODE = 268.5646
ARG_OF_PERICENTER = 104.5838
MEAN_ANOMALY   = 256.5312

EPHEMERIS_TYPE = 0
CLASSIFICATION_TYPE = U
NORAD_CAT_ID   = 67444
ELEMENT_SET_NO = 999
REV_AT_EPOCH   = 88
BSTAR          = -.7267224E-5
MEAN_MOTION_DOT = -.171E-5
MEAN_MOTION_DDOT = 0

